QIANFAN-81              
1 63167U 25046J   25282.57206587  .00000100  00000+0  13576-3 0  9994
2 63167  88.9806 326.5126 0012779 311.0281  48.9764 13.50985100 38822
QIANFAN-82              
1 63168U 25046K   25282.60514847  .00000117  00000+0  16248-3 0  9997
2 63168  88.9806 326.5527 0011135 320.9829  39.0518 13.50967124 38813
QIANFAN-83              
1 63169U 25046L   25282.56187836  .00000187  00000+0  22713-3 0  9998
2 63169  88.9806 326.4595 0012109 307.6208  52.3850 13.61961292 38867
QIANFAN-84              
1 63170U 25046M   25282.55950956  .00000112  00000+0  15507-3 0  9991
2 63170  88.9806 326.6904 0013985 315.6076  44.3954 13.50985330 38739
QIANFAN-85              
1 63171U 25046N   25282.62985443  .00000176  00000+0  25433-3 0  9998
2 63171  88.9805 326.5552 0011434 319.4471  40.5828 13.50969928 38817
QIANFAN-86              
1 63172U 25046P   25282.56402471  .00000023  00000+0  16778-4 0  9991
2 63172  88.9808 326.4226 0009440 326.1683  33.8865 13.50966615 38885
QIANFAN-87              
1 63173U 25046Q   25282.60923828  .00000149  00000+0  21286-3 0  9999
2 63173  88.9804 326.5319 0010019 319.4102  40.6301 13.50979777 38829
QIANFAN-88              
1 63174U 25046R   25282.62573889  .00000164  00000+0  23563-3 0  9997
2 63174  88.9806 326.4831 0010618 328.4242  31.6271 13.50973109 38852
